SHIJIAN-25 (SJ-25)      
1 62485U 25002A   26166.67470828 -.00000352  00000+0  00000+0 0  9996
2 62485   5.1098  61.1749 0052218 173.3259  39.6557  1.00268248  5344
TJS-14                  
1 62804U 25017A   26167.11815039  .00000116  00000+0  00000+0 0  9991
2 62804   0.7848 295.5618 0000970 289.7725  99.9780  1.00273795  5260
SPAINSAT NG I           
1 62852U 25021A   26166.26482125  .00000155  00000+0  00000+0 0  9993
2 62852   0.0139 329.3913 0000300 248.3938 170.1087  1.00272968  3965
QZS-6 (MICHIBIKI-6)     
1 62876U 25023A   26167.02083936 -.00000233  00000+0  00000+0 0  9991
2 62876   0.0510  69.0790 0001703  21.7291 271.5138  1.00270901  4934
ZHONGXING-10R           
1 63075U 25036A   26166.97462494 -.00000352  00000+0  00000+0 0  9992
2 63075   0.0304 241.5917 0003391 258.4851 225.5734  1.00272331  4942
TJS-15                  
1 63157U 25045A   26166.75665602 -.00000263  00000+0  00000+0 0  9996
2 63157   0.2819  85.5188 0004653 296.3695 248.9385  1.00271770  4746
TIANLIAN 2-04           
1 63361U 25062A   26166.91656741 -.00000131  00000+0  00000+0 0  9998
2 63361   4.3778 274.4597 0031733  10.3464  29.4055  1.00271719  4594
TJS-16                  
1 63397U 25064A   26166.74120155 -.00000104  00000+0  00000+0 0  9995
2 63397   1.0947  81.4631 0003346 288.8625 321.1370  1.00271298  4370
TJS-17                  
1 63524U 25073A   26166.64808475 -.00000068  00000+0  00000+0 0  9993
2 63524   1.0603  82.7072 0002069 295.7661 283.3003  1.00271945  4272
TIANLIAN 2-05           
1 63662U 25084A   26167.11849706  .00000127  00000+0  00000+0 0  9998
2 63662   4.4537 279.8500 0003085 146.3673 261.1845  1.00269895  4376
TJS-19                  
1 63924U 25097A   26166.75495963 -.00000274  00000+0  00000+0 0  9998
2 63924   3.2887 317.4231 0002327 241.3377 118.2267  1.00265867  4125
CHINASAT 3B             
1 64062U 25106A   26166.79119052 -.00000044  00000+0  00000+0 0  9994
2 64062   0.0277  96.0818 0002904  28.9177 231.2153  1.00270225  4041
SXM-10                  
1 64290U 25122A   26166.01642035 -.00000012  00000+0  00000+0 0  9997
2 64290   0.0180  20.5552 0001715 338.6402 153.8564  1.00271714  3661
COSMOS 2589             
1 64467U 25131A   26166.75856389 -.00000290  00000+0  00000+0 0  9991
2 64467   0.0298  73.2464 0000171  36.0835 165.7556  1.00272983  3547
CHINASAT 9C             
1 64470U 25132A   26167.06148365  .00000000  00000+0  00000+0 0  9997
2 64470   0.0169  14.9126 0002582  68.4479 295.3105  1.00267564  4131
MTG-S1                  
1 64723U 25143A   26167.11381704 -.00000031  00000+0  00000+0 0  9997
2 64723   0.6041 338.7016 0000989  11.4839 311.7067  1.00271993  3409
DROR 1                  
1 64784U 25148A   26167.11373036 -.00000034  00000+0  00000+0 0  9991
2 64784   0.0330  62.1203 0002529 326.4863 272.7226  1.00271951  3288
SHIYAN-29               
1 65486U 25196A   26167.06191698 -.00000282  00000+0  00000+0 0  9995
2 65486  28.8203  18.5500 0012758 177.5806 185.0023  1.00285431  2870
NUSANTARA LIMA (NUSANT*)
1 65588U 25205A   26166.35270457 -.00000354  00000+0  00000+0 0  9991
2 65588   0.0174  94.9813 0000176  63.4458 345.0370  1.00268607  2705
TJS-20                  
1 66142U 25238A   26167.01016609  .00000027  00000+0  00000+0 0  9991
2 66142   5.4720 299.5621 0004508 162.8688 227.9509  1.00274091  2324
CMS-03 (GSAT-7R)        
1 66311U 25249B   26167.19608455  .00000000  00000+0  00000+0 0  9997
2 66311   0.0169  22.3188 0001539  58.7894 327.9427  1.00269915  2333
VIASAT-3 F2             
1 66454U 25261A   26165.60175115 -.00000227  00000+0  00000+0 0  9997
2 66454   0.0513 158.2746 0000136 130.5402 111.7385  1.00271296  2763
SHIJIAN-28 (SJ-28)      
1 66549U 25277A   26167.06633699 -.00000356  00000+0  00000+0 0  9990
2 66549   4.5409 272.1540 0000844 348.2955 144.4831  1.00263040  2145
TJS-22                  
1 66990U 25290A   26166.87984396 -.00000005  00000+0  00000+0 0  9997
2 66990   1.5317 286.5391 0001913 330.2699  30.5733  1.00273399  2017
TJS-23                  
1 67226U 25306A   26166.60620338  .00000023  00000+0  00000+0 0  9991
2 67226   5.5915 297.4955 0005380 170.1843 189.9972  1.00275133  1874
FENGYUN 4C              
1 67246U 25312A   26166.71313013 -.00000321  00000+0  00000+0 0  9993
2 67246   0.0518 146.7003 0000519  68.8923  78.1215  1.00271142  1769
SHIJIAN-29A (SJ-29A)    
1 67302U 25315A   26166.97197056 -.00000069  00000+0  00000+0 0  9993
2 67302   3.3949  95.1369 0003101  25.4497 206.7651  1.00269611  1607
SHIJIAN-29B (SJ-29B)    
1 67403U 25315C   26166.97197093 -.00000069  00000+0  00000+0 0  9996
2 67403   3.3938  95.1296 0003725  33.3174 198.9450  1.00269384  1671
ELEKTRO-L 5             
1 67756U 26028A   26167.05456514 -.00000097  00000+0  00000+0 0  9996
2 67756   0.2536 311.1649 0001778 180.5166 228.3300  1.00271122  1245
JAM-E JAM 1             
1 67757U 26028B   26167.12127041  .00000156  00000+0  00000+0 0  9990
2 67757   0.2622 302.0689 0001206 299.0952 100.8328  1.00274935  1115
ECHOSTAR 25             
1 68126U 26045A   26166.45113829  .00000000  00000+0  00000+0 0  9992
2 68126   0.0212  13.2287 0001848  73.8446 229.0809  1.00273861   970
