OBJECT_NAME,OBJECT_ID,EPOCH,MEAN_MOTION,ECCENTRICITY,INCLINATION,RA_OF_ASC_NODE,ARG_OF_PERICENTER,MEAN_ANOMALY,EPHEMERIS_TYPE,CLASSIFICATION_TYPE,NORAD_CAT_ID,ELEMENT_SET_NO,REV_AT_EPOCH,BSTAR,MEAN_MOTION_DOT,MEAN_MOTION_DDOT
SHIJIAN-25 (SJ-25),2025-002A,2026-06-15T16:11:34.795392,1.00268248,.0052218,5.1098,61.1749,173.3259,39.6557,0,U,62485,999,534,0,-.352E-5,0
TJS-14,2025-017A,2026-06-16T02:50:08.193696,1.00273795,.000097,0.7848,295.5618,289.7725,99.9780,0,U,62804,999,526,0,.116E-5,0
SPAINSAT NG I,2025-021A,2026-06-15T06:21:20.556000,1.00272968,.00003009,0.0139,329.3913,248.3938,170.1087,0,U,62852,999,396,0,.155E-5,0
QZS-6 (MICHIBIKI-6),2025-023A,2026-06-16T00:30:00.520704,1.00270901,.0001703,0.0510,69.0790,21.7291,271.5138,0,U,62876,999,493,0,-.233E-5,0
ZHONGXING-10R,2025-036A,2026-06-15T23:23:27.594816,1.00272331,.00033913,0.0304,241.5917,258.4851,225.5734,0,U,63075,999,494,0,-.352E-5,0
TJS-15,2025-045A,2026-06-15T18:09:35.080128,1.00271770,.0004653,0.2819,85.5188,296.3695,248.9385,0,U,63157,999,474,0,-.263E-5,0
TIANLIAN 2-04,2025-062A,2026-06-15T21:59:51.424224,1.00271719,.0031733,4.3778,274.4597,10.3464,29.4055,0,U,63361,999,459,0,-.131E-5,0
TJS-16,2025-064A,2026-06-15T17:47:19.813920,1.00271298,.0003346,1.0947,81.4631,288.8625,321.1370,0,U,63397,999,437,0,-.104E-5,0
TJS-17,2025-073A,2026-06-15T15:33:14.522400,1.00271945,.0002069,1.0603,82.7072,295.7661,283.3003,0,U,63524,999,427,0,-.68E-6,0
TIANLIAN 2-05,2025-084A,2026-06-16T02:50:38.145984,1.00269895,.0003085,4.4537,279.8500,146.3673,261.1845,0,U,63662,999,437,0,.127E-5,0
TJS-19,2025-097A,2026-06-15T18:07:08.512032,1.00265867,.0002327,3.2887,317.4231,241.3377,118.2267,0,U,63924,999,412,0,-.274E-5,0
CHINASAT 3B,2025-106A,2026-06-15T18:59:18.860928,1.00270225,.00029044,0.0277,96.0818,28.9177,231.2153,0,U,64062,999,404,0,-.44E-6,0
SXM-10,2025-122A,2026-06-15T00:23:38.718240,1.00271714,.00017158,0.0180,20.5552,338.6402,153.8564,0,U,64290,999,366,0,-.12E-6,0
COSMOS 2589,2025-131A,2026-06-15T18:12:19.920096,1.00272983,.0000171,0.0298,73.2464,36.0835,165.7556,0,U,64467,999,354,0,-.29E-5,0
CHINASAT 9C,2025-132A,2026-06-16T01:28:32.187360,1.00267564,.0002582,0.0169,14.9126,68.4479,295.3105,0,U,64470,999,413,0,0,0
MTG-S1,2025-143A,2026-06-16T02:43:53.792256,1.00271993,.0000989,0.6041,338.7016,11.4839,311.7067,0,U,64723,999,340,0,-.31E-6,0
DROR 1,2025-148A,2026-06-16T02:43:46.303104,1.00271951,.0002529,0.0330,62.1203,326.4863,272.7226,0,U,64784,999,328,0,-.34E-6,0
SHIYAN-29,2025-196A,2026-06-16T01:29:09.627072,1.00285431,.0012758,28.8203,18.5500,177.5806,185.0023,0,U,65486,999,287,0,-.282E-5,0
NUSANTARA LIMA (NUSANTARA 5),2025-205A,2026-06-15T08:27:53.674848,1.00268607,.00001767,0.0174,94.9813,63.4458,345.0370,0,U,65588,999,270,0,-.354E-5,0
TJS-20,2025-238A,2026-06-16T00:14:38.350176,1.00274091,.0004508,5.4720,299.5621,162.8688,227.9509,0,U,66142,999,232,0,.27E-6,0
CMS-03 (GSAT-7R),2025-249B,2026-06-16T04:42:21.705120,1.00269915,.0001539,0.0169,22.3188,58.7894,327.9427,0,U,66311,999,233,0,0,0
VIASAT-3 F2,2025-261A,2026-06-14T14:26:31.299360,1.00271296,.00001368,0.0513,158.2746,130.5402,111.7385,0,U,66454,999,276,0,-.227E-5,0
SHIJIAN-28 (SJ-28),2025-277A,2026-06-16T01:35:31.515936,1.00263040,.0000844,4.5409,272.1540,348.2955,144.4831,0,U,66549,999,214,0,-.356E-5,0
TJS-22,2025-290A,2026-06-15T21:06:58.518144,1.00273399,.0001913,1.5317,286.5391,330.2699,30.5733,0,U,66990,999,201,0,-.5E-7,0
TJS-23,2025-306A,2026-06-15T14:32:55.972032,1.00275133,.000538,5.5915,297.4955,170.1843,189.9972,0,U,67226,999,187,0,.23E-6,0
FENGYUN 4C,2025-312A,2026-06-15T17:06:54.443232,1.00271142,.00005195,0.0518,146.7003,68.8923,78.1215,0,U,67246,999,176,0,-.321E-5,0
SHIJIAN-29A (SJ-29A),2025-315A,2026-06-15T23:19:38.256384,1.00269611,.00031014,3.3949,95.1369,25.4497,206.7651,0,U,67302,999,160,0,-.69E-6,0
SHIJIAN-29B (SJ-29B),2025-315C,2026-06-15T23:19:38.288352,1.00269384,.00037254,3.3938,95.1296,33.3174,198.9450,0,U,67403,999,167,0,-.69E-6,0
ELEKTRO-L 5,2026-028A,2026-06-16T01:18:34.428096,1.00271122,.0001778,0.2536,311.1649,180.5166,228.3300,0,U,67756,999,124,0,-.97E-6,0
JAM-E JAM 1,2026-028B,2026-06-16T02:54:37.763424,1.00274935,.0001206,0.2622,302.0689,299.0952,100.8328,0,U,67757,999,111,0,.156E-5,0
ECHOSTAR 25,2026-045A,2026-06-15T10:49:38.348256,1.00273861,.00018487,0.0212,13.2287,73.8446,229.0809,0,U,68126,999,97,0,0,0
